{
    "links": {
        "self": "http://www.neowsapp.com/rest/v1/neo/3715694?api_key=iIulBulltgU6a56xZRHN4H3l9WmuAYTsLGpBGhQ2"
    },
    "id": "3715694",
    "neo_reference_id": "3715694",
    "name": "(2015 GX12)",
    "designation": "2015 GX12",
    "nasa_jpl_url": "http://ssd.jpl.nasa.gov/sbdb.cgi?sstr=3715694",
    "absolute_magnitude_h": 25.2,
    "estimated_diameter": {
        "kilometers": {
            "estimated_diameter_min": 0.0242412481,
            "estimated_diameter_max": 0.0542050786
        },
        "meters": {
            "estimated_diameter_min": 24.2412481101,
            "estimated_diameter_max": 54.2050786336
        },
        "miles": {
            "estimated_diameter_min": 0.0150628086,
            "estimated_diameter_max": 0.0336814639
        },
        "feet": {
            "estimated_diameter_min": 79.5316564495,
            "estimated_diameter_max": 177.8381901842
        }
    },
    "is_potentially_hazardous_asteroid": false,
    "close_approach_data": [
        {
            "close_approach_date": "1921-04-30",
            "close_approach_date_full": "1921-Apr-30 22:26",
            "epoch_date_close_approach": -1535938440000,
            "relative_velocity": {
                "kilometers_per_second": "14.3541406546",
                "kilometers_per_hour": "51674.906356555",
                "miles_per_hour": "32108.7772302716"
            },
            "miss_distance": {
                "astronomical": "0.2853675106",
                "lunar": "111.0079616234",
                "kilometers": "42690371.752962422",
                "miles": "26526566.9540365436"
            },
            "orbiting_body": "Earth"
        },
        {
            "close_approach_date": "2015-04-04",
            "close_approach_date_full": "2015-Apr-04 19:43",
            "epoch_date_close_approach": 1428176580000,
            "relative_velocity": {
                "kilometers_per_second": "7.2169051866",
                "kilometers_per_hour": "25980.8586717892",
                "miles_per_hour": "16143.4952119237"
            },
            "miss_distance": {
                "astronomical": "0.0257336063",
                "lunar": "10.0103728507",
                "kilometers": "3849692.689898581",
                "miles": "2392088.1149031778"
            },
            "orbiting_body": "Earth"
        },
        {
            "close_approach_date": "2017-01-21",
            "close_approach_date_full": "2017-Jan-21 02:55",
            "epoch_date_close_approach": 1484967300000,
            "relative_velocity": {
                "kilometers_per_second": "15.5754146458",
                "kilometers_per_hour": "56071.4927247983",
                "miles_per_hour": "34840.6450211392"
            },
            "miss_distance": {
                "astronomical": "0.3557614846",
                "lunar": "138.3912175094",
                "kilometers": "53221160.324197802",
                "miles": "33070095.5447495876"
            },
            "orbiting_body": "Earth"
        }
    ],
    "orbital_data": {
        "orbit_id": "5",
        "orbit_determination_date": "2017-04-06 08:34:28",
        "first_observation_date": "2015-04-12",
        "last_observation_date": "2015-04-16",
        "data_arc_in_days": 4,
        "observations_used": 26,
        "orbit_uncertainty": "8",
        "minimum_orbit_intersection": ".0108528",
        "jupiter_tisserand_invariant": "4.368",
        "epoch_osculation": "2457125.5",
        "eccentricity": ".3598025656335183",
        "semi_major_axis": "1.548823257369916",
        "inclination": "7.718433930236729",
        "ascending_node_longitude": "11.55155875859388",
        "orbital_period": "704.0462976846646",
        "perihelion_distance": ".9915526756553572",
        "perihelion_argument": "157.4918894661426",
        "aphelion_distance": "2.106093839084475",
        "perihelion_time": "2457096.086668145163",
        "mean_anomaly": "15.03991925327039",
        "mean_motion": ".5113300093813439",
        "equinox": "J2000",
        "orbit_class": {
            "orbit_class_type": "APO",
            "orbit_class_description": "Near-Earth asteroid orbits which cross the Earth’s orbit similar to that of 1862 Apollo",
            "orbit_class_range": "a (semi-major axis) > 1.0 AU; q (perihelion) < 1.017 AU"
        }
    },
    "is_sentry_object": false
}